{
  "type": "FeatureCollection",
  "features": [
    {
      "type": "Feature",
      "properties": {
        "norad_id": 24876,
        "name": "GPS BIIR-2  (PRN 13)",
        "group": "gps-ops",
        "lat": -54.855027638246156,
        "lon": -0.3484827977270453,
        "alt_km": 20422.234887915,
        "timestamp": "2025-12-18T13:51:49.942159+00:00",
        "meta_object_name": "GPS BIIR-2  (PRN 13)",
        "meta_object_id": "1997-035A",
        "meta_epoch": "2025-12-17T17:14:35.709504",
        "meta_mean_motion": 2.00563699,
        "meta_eccentricity": 0.00967771,
        "meta_inclination": 55.8976,
        "meta_ra_of_asc_node": 105.6742,
        "meta_arg_of_pericenter": 56.9662,
        "meta_mean_anomaly": 303.9295,
        "meta_ephemeris_type": 0,
        "meta_classification_type": "U",
        "meta_norad_cat_id": 24876,
        "meta_element_set_no": 999,
        "meta_rev_at_epoch": 20831,
        "meta_bstar": 0,
        "meta_mean_motion_dot": -2.3e-07,
        "meta_mean_motion_ddot": 0,
        "tle_line1": "1 24876U 97035A   25351.71846886 -.00000023  00000+0  00000+0 0  9999",
        "tle_line2": "2 24876  55.8976 105.6742 0096777  56.9662 303.9295  2.00563699208319"
      },
      "geometry": {
        "type": "Point",
        "coordinates": [
          -0.3484827977270453,
          -54.855027638246156
        ]
      }
    },
    {
      "type": "Feature",
      "properties": {
        "norad_id": 26360,
        "name": "GPS BIIR-4  (PRN 20)",
        "group": "gps-ops",
        "lat": -5.200683498550304,
        "lon": 22.97222244376644,
        "alt_km": 20219.868787939315,
        "timestamp": "2025-12-18T13:51:49.942187+00:00",
        "meta_object_name": "GPS BIIR-4  (PRN 20)",
        "meta_object_id": "2000-025A",
        "meta_epoch": "2025-12-18T04:28:10.585632",
        "meta_mean_motion": 2.00567362,
        "meta_eccentricity": 0.0038886,
        "meta_inclination": 55.0484,
        "meta_ra_of_asc_node": 26.6175,
        "meta_arg_of_pericenter": 242.5017,
        "meta_mean_anomaly": 188.1576,
        "meta_ephemeris_type": 0,
        "meta_classification_type": "U",
        "meta_norad_cat_id": 26360,
        "meta_element_set_no": 999,
        "meta_rev_at_epoch": 18764,
        "meta_bstar": 0,
        "meta_mean_motion_dot": -7.5e-07,
        "meta_mean_motion_ddot": 0,
        "tle_line1": "1 26360U 00025A   25352.18623363 -.00000075  00000+0  00000+0 0  9994",
        "tle_line2": "2 26360  55.0484  26.6175 0038886 242.5017 188.1576  2.00567362187649"
      },
      "geometry": {
        "type": "Point",
        "coordinates": [
          22.97222244376644,
          -5.200683498550304
        ]
      }
    },
    {
      "type": "Feature",
      "properties": {
        "norad_id": 26407,
        "name": "GPS BIIR-5  (PRN 22)",
        "group": "gps-ops",
        "lat": -9.417857650328488,
        "lon": 49.04579491703068,
        "alt_km": 20296.069670729998,
        "timestamp": "2025-12-18T13:51:49.942204+00:00",
        "meta_object_name": "GPS BIIR-5  (PRN 22)",
        "meta_object_id": "2000-040A",
        "meta_epoch": "2025-12-18T01:31:29.889696",
        "meta_mean_motion": 2.00568104,
        "meta_eccentricity": 0.01257268,
        "meta_inclination": 54.8896,
        "meta_ra_of_asc_node": 222.3573,
        "meta_arg_of_pericenter": 301.8987,
        "meta_mean_anomaly": 239.8065,
        "meta_ephemeris_type": 0,
        "meta_classification_type": "U",
        "meta_norad_cat_id": 26407,
        "meta_element_set_no": 999,
        "meta_rev_at_epoch": 18631,
        "meta_bstar": 0,
        "meta_mean_motion_dot": 7.4e-07,
        "meta_mean_motion_ddot": 0,
        "tle_line1": "1 26407U 00040A   25352.06354039  .00000074  00000+0  00000+0 0  9999",
        "tle_line2": "2 26407  54.8896 222.3573 0125726 301.8987 239.8065  2.00568104186312"
      },
      "geometry": {
        "type": "Point",
        "coordinates": [
          49.04579491703068,
          -9.417857650328488
        ]
      }
    },
    {
      "type": "Feature",
      "properties": {
        "norad_id": 27663,
        "name": "GPS BIIR-8  (PRN 16)",
        "group": "gps-ops",
        "lat": -26.393119590224074,
        "lon": -158.23889214982935,
        "alt_km": 20143.294852404877,
        "timestamp": "2025-12-18T13:51:49.942219+00:00",
        "meta_object_name": "GPS BIIR-8  (PRN 16)",
        "meta_object_id": "2003-005A",
        "meta_epoch": "2025-12-18T07:42:25.953408",
        "meta_mean_motion": 2.00570667,
        "meta_eccentricity": 0.01476507,
        "meta_inclination": 54.922,
        "meta_ra_of_asc_node": 222.1563,
        "meta_arg_of_pericenter": 51.8768,
        "meta_mean_anomaly": 91.7669,
        "meta_ephemeris_type": 0,
        "meta_classification_type": "U",
        "meta_norad_cat_id": 27663,
        "meta_element_set_no": 999,
        "meta_rev_at_epoch": 16768,
        "meta_bstar": 0,
        "meta_mean_motion_dot": 7.5e-07,
        "meta_mean_motion_ddot": 0,
        "tle_line1": "1 27663U 03005A   25352.32113372  .00000075  00000+0  00000+0 0  9991",
        "tle_line2": "2 27663  54.9220 222.1563 0147650  51.8768  91.7669  2.00570667167686"
      },
      "geometry": {
        "type": "Point",
        "coordinates": [
          -158.23889214982935,
          -26.393119590224074
        ]
      }
    },
    {
      "type": "Feature",
      "properties": {
        "norad_id": 28190,
        "name": "GPS BIIR-11 (PRN 19)",
        "group": "gps-ops",
        "lat": 41.12019059924003,
        "lon": 65.28767000707396,
        "alt_km": 19958.845572101025,
        "timestamp": "2025-12-18T13:51:49.942232+00:00",
        "meta_object_name": "GPS BIIR-11 (PRN 19)",
        "meta_object_id": "2004-009A",
        "meta_epoch": "2025-12-18T01:19:43.105728",
        "meta_mean_motion": 2.00560667,
        "meta_eccentricity": 0.01084092,
        "meta_inclination": 54.9808,
        "meta_ra_of_asc_node": 283.0048,
        "meta_arg_of_pericenter": 167.7197,
        "meta_mean_anomaly": 302.5438,
        "meta_ephemeris_type": 0,
        "meta_classification_type": "U",
        "meta_norad_cat_id": 28190,
        "meta_element_set_no": 999,
        "meta_rev_at_epoch": 15931,
        "meta_bstar": 0,
        "meta_mean_motion_dot": -5.1e-07,
        "meta_mean_motion_ddot": 0,
        "tle_line1": "1 28190U 04009A   25352.05536002 -.00000051  00000+0  00000+0 0  9996",
        "tle_line2": "2 28190  54.9808 283.0048 0108409 167.7197 302.5438  2.00560667159317"
      },
      "geometry": {
        "type": "Point",
        "coordinates": [
          65.28767000707396,
          41.12019059924003
        ]
      }
    },
    {
      "type": "Feature",
      "properties": {
        "norad_id": 28474,
        "name": "GPS BIIR-13 (PRN 02)",
        "group": "gps-ops",
        "lat": -4.980794542399383,
        "lon": 155.6261875252167,
        "alt_km": 20426.92966824758,
        "timestamp": "2025-12-18T13:51:49.942244+00:00",
        "meta_object_name": "GPS BIIR-13 (PRN 02)",
        "meta_object_id": "2004-045A",
        "meta_epoch": "2025-12-18T01:39:38.765952",
        "meta_mean_motion": 2.00569875,
        "meta_eccentricity": 0.01708529,
        "meta_inclination": 55.238,
        "meta_ra_of_asc_node": 332.1914,
        "meta_arg_of_pericenter": 309.4802,
        "meta_mean_anomaly": 231.0384,
        "meta_ephemeris_type": 0,
        "meta_classification_type": "U",
        "meta_norad_cat_id": 28474,
        "meta_element_set_no": 999,
        "meta_rev_at_epoch": 15479,
        "meta_bstar": 0,
        "meta_mean_motion_dot": -8.7e-07,
        "meta_mean_motion_ddot": 0,
        "tle_line1": "1 28474U 04045A   25352.06919868 -.00000087  00000+0  00000+0 0  9996",
        "tle_line2": "2 28474  55.2380 332.1914 0170852 309.4802 231.0384  2.00569875154791"
      },
      "geometry": {
        "type": "Point",
        "coordinates": [
          155.6261875252167,
          -4.980794542399383
        ]
      }
    },
    {
      "type": "Feature",
      "properties": {
        "norad_id": 28874,
        "name": "GPS BIIRM-1 (PRN 17)",
        "group": "gps-ops",
        "lat": 27.305027491606957,
        "lon": 79.29842913100264,
        "alt_km": 20472.039477491562,
        "timestamp": "2025-12-18T13:51:49.942256+00:00",
        "meta_object_name": "GPS BIIRM-1 (PRN 17)",
        "meta_object_id": "2005-038A",
        "meta_epoch": "2025-12-18T01:19:16.809024",
        "meta_mean_motion": 2.00578146,
        "meta_eccentricity": 0.01314775,
        "meta_inclination": 55.0272,
        "meta_ra_of_asc_node": 280.4869,
        "meta_arg_of_pericenter": 293.6658,
        "meta_mean_anomaly": 195.7064,
        "meta_ephemeris_type": 0,
        "meta_classification_type": "U",
        "meta_norad_cat_id": 28874,
        "meta_element_set_no": 999,
        "meta_rev_at_epoch": 14820,
        "meta_bstar": 0,
        "meta_mean_motion_dot": -4.7e-07,
        "meta_mean_motion_ddot": 0,
        "tle_line1": "1 28874U 05038A   25352.05505566 -.00000047  00000+0  00000+0 0  9994",
        "tle_line2": "2 28874  55.0272 280.4869 0131477 293.6658 195.7064  2.00578146148201"
      },
      "geometry": {
        "type": "Point",
        "coordinates": [
          79.29842913100264,
          27.305027491606957
        ]
      }
    }
  ]
}